APRIZESAT 2             
1 28366U 04025A   26196.46472554  .00000088  00000+0  40361-4 0  9990
2 28366  98.1042   0.8477 0105953 164.0512 196.4055 14.38047709155700
SAUDICOMSAT 1           
1 28369U 04025D   26196.47692938  .00000138  00000+0  42974-4 0  9992
2 28369  98.5778 207.3726 0030992 298.0104  61.7957 14.55493695168245
SAUDICOMSAT 2           
1 28370U 04025E   26196.83178663  .00000088  00000+0  34862-4 0  9999
2 28370  98.6643 209.8880 0055675 171.7576 188.4545 14.49994542164259
APRIZESAT 1             
1 28372U 04025G   26196.82796761  .00000110  00000+0  39190-4 0  9990
2 28372  98.6309 208.3334 0045761  68.8027 291.8048 14.51792243166065
NANOSAT-1               
1 28493U 04049B   26196.89902771  .00000463  00000+0  68184-4 0  9993
2 28493  98.2310 334.2683 0003855 181.6105 178.5094 14.80211526159697
SAUDICOMSAT 7           
1 31119U 07012C   26196.91339583  .00000225  00000+0  49534-4 0  9997
2 31119  98.3798 171.6360 0056993 106.0928 254.6560 14.66136994 26648
SAUDICOMSAT 6           
1 31121U 07012E   26196.89214489  .00000153  00000+0  39379-4 0  9990
2 31121  98.4118 164.9464 0070547 236.8994 122.5422 14.62584793 24383
SAUDICOMSAT 5           
1 31124U 07012H   26196.91473019  .00000292  00000+0  59000-4 0  9999
2 31124  98.3511 172.3787 0048208  36.5981 323.8500 14.68192613 27819
SAUDICOMSAT 3           
1 31125U 07012J   26196.89340537  .00000343  00000+0  64471-4 0  9990
2 31125  98.3165 172.9033 0038227 322.9852  36.8717 14.70750290 29046
SAUDICOMSAT 4           
1 31127U 07012L   26196.91837688  .00000187  00000+0  44103-4 0  9999
2 31127  98.4004 170.0780 0063628 167.4767 192.8034 14.64535693 25490
APRIZESAT 4             
1 35684U 09041D   26196.78036155  .00000351  00000+0  48694-4 0  9992
2 35684  98.1404 272.6697 0042262 227.5897 132.1738 14.83914289915604
APRIZESAT 3             
1 35686U 09041F   26196.92123348  .00000775  00000+0  72038-4 0  9990
2 35686  98.2102 351.5282 0060765 333.5061  26.3056 14.96312251920673
S-NET D                 
1 43186U 18014G   26196.63103246  .00002654  00000+0  13807-3 0  9993
2 43186  97.5333 101.2453 0006208 283.0320  77.0220 15.16920297463074
S-NET B                 
1 43187U 18014H   26196.64304467  .00002463  00000+0  12848-3 0  9995
2 43187  97.5338 101.2446 0006841 276.7896  83.2558 15.16889958463073
S-NET A                 
1 43188U 18014J   26196.62975303  .00002717  00000+0  14119-3 0  9992
2 43188  97.5348 101.4458 0006704 277.8489  82.1983 15.16928771463075
S-NET C                 
1 43189U 18014K   26196.64707333  .00002432  00000+0  12688-3 0  9994
2 43189  97.5366 101.5419 0008104 268.4533  91.5771 15.16881245461628
SALSAT                  
1 46495U 20068K   26196.92204374  .00003996  00000+0  13964-3 0  9991
2 46495  97.8855 201.7454 0009261 190.1996 169.9057 15.30178067319758
OOV-CUBE (TUBSAT-30)    
1 60240U 24128F   26196.93239248  .00000949  00000+0  85017-4 0  9999
2 60240  61.9938 125.3314 0041025 140.2024 220.2089 15.02875517110437
LPNTSAT-001 (IOD-1)     
1 68408U 26065A   26196.47611897  .00001327  00000+0  67143-4 0  9999
2 68408  97.3980  76.3842 0014622 265.3681  94.5883 15.18669547 16556
CHUANG XIN 26 (CX-26)   
1 69972U 26158A   26194.51442212 -.00000212  00000+0 -21871-4 0  9997
2 69972  49.9860 287.5119 0004887 294.2352  65.8050 14.25122238   462
